GLOBALSTAR M075         
1 37192U 10054E   25265.66359101 -.00000104  00000+0 -15787-5 0  9992
2 37192  51.9931 244.7433 0000325  70.2688 101.3136 12.62267824688153
GLOBALSTAR M073         
1 37193U 10054F   25265.10404480 -.00000070  00000+0  18899-3 0  9999
2 37193  52.0050 160.3408 0000712  85.7160  61.5298 12.62262706690073
GLOBALSTAR M083         
1 37739U 11033A   25265.87962466 -.00000062  00000+0  23201-3 0  9994
2 37739  51.9843 106.5754 0000949  88.1201 285.6534 12.62276089659197
GLOBALSTAR M088         
1 37740U 11033B   25265.47159633 -.00000109  00000+0 -26948-4 0  9991
2 37740  52.0244  13.5963 0000652  94.8806 343.2306 12.62267820654681
GLOBALSTAR M091         
1 37741U 11033C   25265.90109440 -.00000087  00000+0  96040-4 0  9995
2 37741  52.0018 335.6502 0000668  95.0401  76.9996 12.62259786655520
GLOBALSTAR M085         
1 37742U 11033D   25265.37807090 -.00000089  00000+0  81041-4 0  9990
2 37742  52.0120 288.3024 0000586  88.4467 285.2512 12.62264900655977
GLOBALSTAR M081         
1 37743U 11033E   25265.83537285 -.00000081  00000+0  12750-3 0  9990
2 37743  51.9956 289.6523 0000485 109.6775  62.3463 12.62268476656171
GLOBALSTAR M089         
1 37744U 11033F   25265.71623410 -.00000105  00000+0 -86455-5 0  9997
2 37744  51.9915 244.2217 0000120  60.2853 110.9064 12.62266967657002
